{"type": "FeatureCollection", "features": [ {"type": "Feature", "properties": {"norad_id": 41836, "name": "HIMAWARI-9", "group": "weather", "lat": -0.023666811227860494, "lon": -149.69770722489832, "alt_km": 35789.983710069675, "timestamp": "2025-12-20T22:39:10.292041+00:00", "meta": {"OBJECT_NAME": "HIMAWARI-9", "OBJECT_ID": "2016-064A", "EPOCH": "2025-12-20T07:03:06.614784", "MEAN_MOTION": 1.00274531, "ECCENTRICITY": 0.00015231, "INCLINATION": 0.0185, "RA_OF_ASC_NODE": 0.0735, "ARG_OF_PERICENTER": 346.3571, "MEAN_ANOMALY": 349.2305, "EPHEMERIS_TYPE": 0, "CLASSIFICATION_TYPE": "U", "NORAD_CAT_ID": 41836, "ELEMENT_SET_NO": 999, "REV_AT_EPOCH": 3341, "BSTAR": 0, "MEAN_MOTION_DOT": 0, "MEAN_MOTION_DDOT": 0}, "tle": {"line1": "1 41836U 16064A   25354.29382656  .00000000  00000+0  00000+0 0  9997", "line2": "2 41836   0.0185   0.0735 0001523 346.3571 349.2305  1.00274531 33413"}}, "geometry": {"type": "Point", "coordinates": [-149.69770722489832, -0.023666811227860494]}}, {"type": "Feature", "properties": {"norad_id": 41866, "name": "GOES 16", "group": "weather", "lat": -0.0631216688759513, "lon": -35.08406319627482, "alt_km": 35779.46141586204, "timestamp": "2025-12-20T22:39:10.292052+00:00", "meta": {"OBJECT_NAME": "GOES 16", "OBJECT_ID": "2016-071A", "EPOCH": "2025-12-20T11:12:35.083008", "MEAN_MOTION": 1.00272153, "ECCENTRICITY": 0.00030268, "INCLINATION": 0.0747, "RA_OF_ASC_NODE": 102.2708, "ARG_OF_PERICENTER": 163.1821, "MEAN_ANOMALY": 247.3246, "EPHEMERIS_TYPE": 0, "CLASSIFICATION_TYPE": "U", "NORAD_CAT_ID": 41866, "ELEMENT_SET_NO": 999, "REV_AT_EPOCH": 3331, "BSTAR": 0, "MEAN_MOTION_DOT": -6.7e-07, "MEAN_MOTION_DDOT": 0}, "tle": {"line1": "1 41866U 16071A   25354.46707272 -.00000067  00000+0  00000+0 0  9996", "line2": "2 41866   0.0747 102.2708 0003026 163.1821 247.3246  1.00272153 33317"}}, "geometry": {"type": "Point", "coordinates": [-35.08406319627482, -0.0631216688759513]}}, {"type": "Feature", "properties": {"norad_id": 41882, "name": "FENGYUN 4A", "group": "weather", "lat": 1.7405329995159877, "lon": -166.73935183225345, "alt_km": 35771.453203336925, "timestamp": "2025-12-20T22:39:10.292063+00:00", "meta": {"OBJECT_NAME": "FENGYUN 4A", "OBJECT_ID": "2016-077A", "EPOCH": "2025-12-19T13:51:06.687072", "MEAN_MOTION": 1.00266581, "ECCENTRICITY": 0.0004506, "INCLINATION": 1.866, "RA_OF_ASC_NODE": 82.3247, "ARG_OF_PERICENTER": 142.8816, "MEAN_ANOMALY": 194.7423, "EPHEMERIS_TYPE": 0, "CLASSIFICATION_TYPE": "U", "NORAD_CAT_ID": 41882, "ELEMENT_SET_NO": 999, "REV_AT_EPOCH": 3312, "BSTAR": 0, "MEAN_MOTION_DOT": -3.34e-06, "MEAN_MOTION_DDOT": 0}, "tle": {"line1": "1 41882U 16077A   25353.57716073 -.00000334  00000+0  00000+0 0  9997", "line2": "2 41882   1.8660  82.3247 0004506 142.8816 194.7423  1.00266581 33125"}}, "geometry": {"type": "Point", "coordinates": [-166.73935183225345, 1.7405329995159877]}}, {"type": "Feature", "properties": {"norad_id": 41884, "name": "CYGFM05", "group": "weather", "lat": 33.2237678387107, "lon": 63.15456968561158, "alt_km": 423.96381726851087, "timestamp": "2025-12-20T22:39:10.292074+00:00", "meta": {"OBJECT_NAME": "CYGFM05", "OBJECT_ID": "2016-078A", "EPOCH": "2025-12-20T09:57:19.872576", "MEAN_MOTION": 15.47904275, "ECCENTRICITY": 0.00107959, "INCLINATION": 34.9606, "RA_OF_ASC_NODE": 356.9859, "ARG_OF_PERICENTER": 250.6925, "MEAN_ANOMALY": 109.2629, "EPHEMERIS_TYPE": 0, "CLASSIFICATION_TYPE": "U", "NORAD_CAT_ID": 41884, "ELEMENT_SET_NO": 999, "REV_AT_EPOCH": 50095, "BSTAR": 0.00028174579, "MEAN_MOTION_DOT": 0.00015144, "MEAN_MOTION_DDOT": 0}, "tle": {"line1": "1 41884U 16078A   25354.41481334  .00015144  00000+0  28175-3 0  9994", "line2": "2 41884  34.9606 356.9859 0010795 250.6925 109.2629 15.47904275500953"}}, "geometry": {"type": "Point", "coordinates": [63.15456968561158, 33.2237678387107]}}, {"type": "Feature", "properties": {"norad_id": 41885, "name": "CYGFM04", "group": "weather", "lat": 18.604555458796536, "lon": -3.1012623506864765, "alt_km": 413.4931707106407, "timestamp": "2025-12-20T22:39:10.292084+00:00", "meta": {"OBJECT_NAME": "CYGFM04", "OBJECT_ID": "2016-078B", "EPOCH": "2025-12-20T08:36:05.783328", "MEAN_MOTION": 15.50664937, "ECCENTRICITY": 0.00097019, "INCLINATION": 34.9357, "RA_OF_ASC_NODE": 331.9095, "ARG_OF_PERICENTER": 275.107, "MEAN_ANOMALY": 84.8545, "EPHEMERIS_TYPE": 0, "CLASSIFICATION_TYPE": "U", "NORAD_CAT_ID": 41885, "ELEMENT_SET_NO": 999, "REV_AT_EPOCH": 50112, "BSTAR": 0.00030127254, "MEAN_MOTION_DOT": 0.0001786, "MEAN_MOTION_DDOT": 0}, "tle": {"line1": "1 41885U 16078B   25354.35840027  .00017860  00000+0  30127-3 0  9993", "line2": "2 41885  34.9357 331.9095 0009701 275.1070  84.8545 15.50664937501127"}}, "geometry": {"type": "Point", "coordinates": [-3.1012623506864765, 18.604555458796536]}}, {"type": "Feature", "properties": {"norad_id": 41886, "name": "CYGFM02", "group": "weather", "lat": 34.90419510636524, "lon": 54.01372229228356, "alt_km": 411.6988144605102, "timestamp": "2025-12-20T22:39:10.292093+00:00", "meta": {"OBJECT_NAME": "CYGFM02", "OBJECT_ID": "2016-078C", "EPOCH": "2025-12-20T08:22:53.365728", "MEAN_MOTION": 15.52066402, "ECCENTRICITY": 0.00113856, "INCLINATION": 34.9446, "RA_OF_ASC_NODE": 330.1965, "ARG_OF_PERICENTER": 275.5269, "MEAN_ANOMALY": 84.4156, "EPHEMERIS_TYPE": 0, "CLASSIFICATION_TYPE": "U", "NORAD_CAT_ID": 41886, "ELEMENT_SET_NO": 999, "REV_AT_EPOCH": 50125, "BSTAR": 0.00030781322, "MEAN_MOTION_DOT": 0.00019209, "MEAN_MOTION_DDOT": 0}, "tle": {"line1": "1 41886U 16078C   25354.34922877  .00019209  00000+0  30781-3 0  9992", "line2": "2 41886  34.9446 330.1965 0011385 275.5269  84.4156 15.52066402501252"}}, "geometry": {"type": "Point", "coordinates": [54.01372229228356, 34.90419510636524]}}, {"type": "Feature", "properties": {"norad_id": 41887, "name": "CYGFM01", "group": "weather", "lat": 24.06015984414718, "lon": 136.06966886362102, "alt_km": 419.262531276966, "timestamp": "2025-12-20T22:39:10.292102+00:00", "meta": {"OBJECT_NAME": "CYGFM01", "OBJECT_ID": "2016-078D", "EPOCH": "2025-12-20T05:03:14.113728", "MEAN_MOTION": 15.48485251, "ECCENTRICITY": 0.0010463, "INCLINATION": 34.9437, "RA_OF_ASC_NODE": 0.6169, "ARG_OF_PERICENTER": 241.4971, "MEAN_ANOMALY": 118.4697, "EPHEMERIS_TYPE": 0, "CLASSIFICATION_TYPE": "U", "NORAD_CAT_ID": 41887, "ELEMENT_SET_NO": 999, "REV_AT_EPOCH": 50086, "BSTAR": 0.00028199, "MEAN_MOTION_DOT": 0.00015469, "MEAN_MOTION_DDOT": 0}, "tle": {"line1": "1 41887U 16078D   25354.21058002  .00015469  00000+0  28199-3 0  9993", "line2": "2 41887  34.9437   0.6169 0010463 241.4971 118.4697 15.48485251500862"}}, "geometry": {"type": "Point", "coordinates": [136.06966886362102, 24.06015984414718]}}, {"type": "Feature", "properties": {"norad_id": 41888, "name": "CYGFM08", "group": "weather", "lat": -21.138614633175553, "lon": -167.6654176566648, "alt_km": 413.63124658201014, "timestamp": "2025-12-20T22:39:10.292112+00:00", "meta": {"OBJECT_NAME": "CYGFM08", "OBJECT_ID": "2016-078E", "EPOCH": "2025-12-20T09:20:35.850048", "MEAN_MOTION": 15.49716188, "ECCENTRICITY": 0.00119728, "INCLINATION": 34.9468, "RA_OF_ASC_NODE": 342.3498, "ARG_OF_PERICENTER": 265.5444, "MEAN_ANOMALY": 94.391, "EPHEMERIS_TYPE": 0, "CLASSIFICATION_TYPE": "U", "NORAD_CAT_ID": 41888, "ELEMENT_SET_NO": 999, "REV_AT_EPOCH": 50112, "BSTAR": 0.00029221283, "MEAN_MOTION_DOT": 0.00016759, "MEAN_MOTION_DDOT": 0}, "tle": {"line1": "1 41888U 16078E   25354.38930382  .00016759  00000+0  29221-3 0  9992", "line2": "2 41888  34.9468 342.3498 0011972 265.5444  94.3910 15.49716188501123"}}, "geometry": {"type": "Point", "coordinates": [-167.6654176566648, -21.138614633175553]}}, {"type": "Feature", "properties": {"norad_id": 41890, "name": "CYGFM07", "group": "weather", "lat": -23.49223276316915, "lon": -173.86033311805164, "alt_km": 413.8965715268032, "timestamp": "2025-12-20T22:39:10.292122+00:00", "meta": {"OBJECT_NAME": "CYGFM07", "OBJECT_ID": "2016-078G", "EPOCH": "2025-12-20T06:14:08.524896", "MEAN_MOTION": 15.50300971, "ECCENTRICITY": 0.00100829, "INCLINATION": 34.9485, "RA_OF_ASC_NODE": 332.1364, "ARG_OF_PERICENTER": 279.4388, "MEAN_ANOMALY": 80.5194, "EPHEMERIS_TYPE": 0, "CLASSIFICATION_TYPE": "U", "NORAD_CAT_ID": 41890, "ELEMENT_SET_NO": 999, "REV_AT_EPOCH": 50112, "BSTAR": 0.0002906107, "MEAN_MOTION_DOT": 0.00017004, "MEAN_MOTION_DDOT": 0}, "tle": {"line1": "1 41890U 16078G   25354.25982089  .00017004  00000+0  29061-3 0  9998", "line2": "2 41890  34.9485 332.1364 0010082 279.4388  80.5194 15.50300971501128"}}, "geometry": {"type": "Point", "coordinates": [-173.86033311805164, -23.49223276316915]}}, {"type": "Feature", "properties": {"norad_id": 41891, "name": "CYGFM03", "group": "weather", "lat": 28.298998060257468, "lon": 20.026756930612635, "alt_km": 415.88434349108866, "timestamp": "2025-12-20T22:39:10.292132+00:00", "meta": {"OBJECT_NAME": "CYGFM03", "OBJECT_ID": "2016-078H", "EPOCH": "2025-12-20T05:24:41.758848", "MEAN_MOTION": 15.50196559, "ECCENTRICITY": 0.00096734, "INCLINATION": 34.9438, "RA_OF_ASC_NODE": 334.2852, "ARG_OF_PERICENTER": 266.9211, "MEAN_ANOMALY": 93.0404, "EPHEMERIS_TYPE": 0, "CLASSIFICATION_TYPE": "U", "NORAD_CAT_ID": 41891, "ELEMENT_SET_NO": 999, "REV_AT_EPOCH": 50109, "BSTAR": 0.00029188534, "MEAN_MOTION_DOT": 0.00017012, "MEAN_MOTION_DDOT": 0}, "tle": {"line1": "1 41891U 16078H   25354.22548332  .00017012  00000+0  29189-3 0  9995", "line2": "2 41891  34.9438 334.2852 0009673 266.9211  93.0404 15.50196559501096"}}, "geometry": {"type": "Point", "coordinates": [20.026756930612635, 28.298998060257468]}}]}